KUIPER-00605            
1 69288U 26118X   26188.75003471 -.01103669  00000+0 -59040-1 0  9999
2 69288  51.8800 314.6907 0004370 266.1720 130.1532 15.17326527  2438
KUIPER-00606            
1 69289U 26118Y   26188.46546587  .00025501  00000+0  67515-3 0  9991
2 69289  51.8702 315.0880 0003230 249.7449 110.3191 15.38203141  7103
KUIPER-00607            
1 69290U 26118Z   26187.62808184  .00020906  00000+0  56185-3 0  9999
2 69290  51.8698 319.2181 0004889 247.3574 112.6896 15.37856801  6970
KUIPER-00608            
1 69291U 26118AA  26188.46363332  .00013195  00000+0  40471-3 0  9997
2 69291  51.8603 315.7796 0007588 271.9678  88.0438 15.34058525  7093
KUIPER-00610            
1 69292U 26118AB  26188.45197988  .00025004  00000+0  65246-3 0  9998
2 69292  51.8717 315.0009 0001757 242.3987 117.6822 15.38663833  7103
KUIPER-00613            
1 69293U 26118AC  26188.75003471 -.02147267  00000+0 -10248+0 0  9993
2 69293  51.8715 314.8583 0008823 259.2973  25.9565 15.22269563  4218
KUIPER-00618            
1 69294U 26118AD  26188.39045779  .00020267  00000+0  55289-3 0  9995
2 69294  51.8723 315.3348 0000522 193.1316 166.9658 15.37421266  7092
KUIPER-00620            
1 69295U 26118AE  26188.45137687  .00017214  00000+0  45241-3 0  9998
2 69295  51.8722 315.0001 0000894 198.8060 161.2894 15.38691783  7101
KUIPER-00423            
1 69592U 26140A   26188.64777461  .00012529  00000+0  33379-3 0  9997
2 69592  51.8807 299.6069 0013488 241.2423 118.7210 15.38474912  4384
KUIPER-00428            
1 69593U 26140B   26188.74326223  .00021138  00000+0  58678-3 0  9990
2 69593  51.8807 299.4916 0007897   5.0917 355.0148 15.36828451  4391
KUIPER-00481            
1 69594U 26140C   26188.65600056  .00012193  00000+0  33216-3 0  9992
2 69594  51.8783 299.6565 0011105 249.6761 110.3033 15.37840552  4388
KUIPER-00490            
1 69595U 26140D   26188.66555503  .00018106  00000+0  48849-3 0  9998
2 69595  51.8769 299.7147 0006267 311.9924  48.0529 15.37831000  4382
KUIPER-00493            
1 69596U 26140E   26188.61712766  .00008791  00000+0  25298-3 0  9992
2 69596  51.8803 300.1430 0007562  13.8269 346.2923 15.36544559  4372
KUIPER-00496            
1 69597U 26140F   26188.63015212  .00014372  00000+0  43478-3 0  9999
2 69597  51.8791 300.2219 0011575  12.3500 347.7767 15.34386043  4378
KUIPER-00513            
1 69598U 26140G   26188.66325044  .00023317  00000+0  62141-3 0  9997
2 69598  51.8797 299.7076 0007052 309.4277  50.6085 15.38036678  4388
KUIPER-00516            
1 69599U 26140H   26188.66880373  .00010685  00000+0  29631-3 0  9990
2 69599  51.8784 299.7379 0006640 327.3216  32.7359 15.37462649  4380
