{"fetched_at":"2026-07-08T07:03:33.083Z","source":"https://celestrak.org/NORAD/elements/gp.php?GROUP=kuiper&FORMAT=JSON","constellation":"kuiper","records":[{"OBJECT_NAME":"KUIPER-00605","OBJECT_ID":"2026-118X","EPOCH":"2026-07-07T18:00:02.998944","CLASSIFICATION_TYPE":"U","MEAN_MOTION":15.17326527,"ECCENTRICITY":0.000437,"INCLINATION":51.88,"RA_OF_ASC_NODE":314.6907,"ARG_OF_PERICENTER":266.172,"MEAN_ANOMALY":130.1532,"EPHEMERIS_TYPE":0,"NORAD_CAT_ID":69288,"ELEMENT_SET_NO":999,"REV_AT_EPOCH":243,"BSTAR":-0.05904,"MEAN_MOTION_DOT":-0.01103669,"MEAN_MOTION_DDOT":0},{"OBJECT_NAME":"KUIPER-00606","OBJECT_ID":"2026-118Y","EPOCH":"2026-07-07T11:10:16.251168","CLASSIFICATION_TYPE":"U","MEAN_MOTION":15.38203141,"ECCENTRICITY":0.00032301,"INCLINATION":51.8702,"RA_OF_ASC_NODE":315.088,"ARG_OF_PERICENTER":249.7449,"MEAN_ANOMALY":110.3191,"EPHEMERIS_TYPE":0,"NORAD_CAT_ID":69289,"ELEMENT_SET_NO":999,"REV_AT_EPOCH":710,"BSTAR":0.00067515088,"MEAN_MOTION_DOT":0.00025501,"MEAN_MOTION_DDOT":0},{"OBJECT_NAME":"KUIPER-00607","OBJECT_ID":"2026-118Z","EPOCH":"2026-07-06T15:04:26.270976","CLASSIFICATION_TYPE":"U","MEAN_MOTION":15.37856801,"ECCENTRICITY":0.00048896,"INCLINATION":51.8698,"RA_OF_ASC_NODE":319.2181,"ARG_OF_PERICENTER":247.3574,"MEAN_ANOMALY":112.6896,"EPHEMERIS_TYPE":0,"NORAD_CAT_ID":69290,"ELEMENT_SET_NO":999,"REV_AT_EPOCH":697,"BSTAR":0.00056184887,"MEAN_MOTION_DOT":0.00020906,"MEAN_MOTION_DDOT":0},{"OBJECT_NAME":"KUIPER-00608","OBJECT_ID":"2026-118AA","EPOCH":"2026-07-07T11:07:37.918848","CLASSIFICATION_TYPE":"U","MEAN_MOTION":15.34058525,"ECCENTRICITY":0.0007588,"INCLINATION":51.8603,"RA_OF_ASC_NODE":315.7796,"ARG_OF_PERICENTER":271.9678,"MEAN_ANOMALY":88.0438,"EPHEMERIS_TYPE":0,"NORAD_CAT_ID":69291,"ELEMENT_SET_NO":999,"REV_AT_EPOCH":709,"BSTAR":0.00040471063,"MEAN_MOTION_DOT":0.00013195,"MEAN_MOTION_DDOT":0},{"OBJECT_NAME":"KUIPER-00610","OBJECT_ID":"2026-118AB","EPOCH":"2026-07-07T10:50:51.061632","CLASSIFICATION_TYPE":"U","MEAN_MOTION":15.38663833,"ECCENTRICITY":0.00017576,"INCLINATION":51.8717,"RA_OF_ASC_NODE":315.0009,"ARG_OF_PERICENTER":242.3987,"MEAN_ANOMALY":117.6822,"EPHEMERIS_TYPE":0,"NORAD_CAT_ID":69292,"ELEMENT_SET_NO":999,"REV_AT_EPOCH":710,"BSTAR":0.00065246157,"MEAN_MOTION_DOT":0.00025004,"MEAN_MOTION_DDOT":0},{"OBJECT_NAME":"KUIPER-00613","OBJECT_ID":"2026-118AC","EPOCH":"2026-07-07T18:00:02.998944","CLASSIFICATION_TYPE":"U","MEAN_MOTION":15.22269563,"ECCENTRICITY":0.0008823,"INCLINATION":51.8715,"RA_OF_ASC_NODE":314.8583,"ARG_OF_PERICENTER":259.2973,"MEAN_ANOMALY":25.9565,"EPHEMERIS_TYPE":0,"NORAD_CAT_ID":69293,"ELEMENT_SET_NO":999,"REV_AT_EPOCH":421,"BSTAR":-0.10248,"MEAN_MOTION_DOT":-0.02147267,"MEAN_MOTION_DDOT":0},{"OBJECT_NAME":"KUIPER-00618","OBJECT_ID":"2026-118AD","EPOCH":"2026-07-07T09:22:15.553056","CLASSIFICATION_TYPE":"U","MEAN_MOTION":15.37421266,"ECCENTRICITY":0.00005223,"INCLINATION":51.8723,"RA_OF_ASC_NODE":315.3348,"ARG_OF_PERICENTER":193.1316,"MEAN_ANOMALY":166.9658,"EPHEMERIS_TYPE":0,"NORAD_CAT_ID":69294,"ELEMENT_SET_NO":999,"REV_AT_EPOCH":709,"BSTAR":0.00055288759,"MEAN_MOTION_DOT":0.00020267,"MEAN_MOTION_DDOT":0},{"OBJECT_NAME":"KUIPER-00620","OBJECT_ID":"2026-118AE","EPOCH":"2026-07-07T10:49:58.961568","CLASSIFICATION_TYPE":"U","MEAN_MOTION":15.38691783,"ECCENTRICITY":0.00008945,"INCLINATION":51.8722,"RA_OF_ASC_NODE":315.0001,"ARG_OF_PERICENTER":198.806,"MEAN_ANOMALY":161.2894,"EPHEMERIS_TYPE":0,"NORAD_CAT_ID":69295,"ELEMENT_SET_NO":999,"REV_AT_EPOCH":710,"BSTAR":0.00045240547,"MEAN_MOTION_DOT":0.00017214,"MEAN_MOTION_DDOT":0},{"OBJECT_NAME":"KUIPER-00423","OBJECT_ID":"2026-140A","EPOCH":"2026-07-07T15:32:47.726304","CLASSIFICATION_TYPE":"U","MEAN_MOTION":15.38474912,"ECCENTRICITY":0.0013488,"INCLINATION":51.8807,"RA_OF_ASC_NODE":299.6069,"ARG_OF_PERICENTER":241.2423,"MEAN_ANOMALY":118.721,"EPHEMERIS_TYPE":0,"NORAD_CAT_ID":69592,"ELEMENT_SET_NO":999,"REV_AT_EPOCH":438,"BSTAR":0.00033379,"MEAN_MOTION_DOT":0.00012529,"MEAN_MOTION_DDOT":0},{"OBJECT_NAME":"KUIPER-00428","OBJECT_ID":"2026-140B","EPOCH":"2026-07-07T17:50:17.856672","CLASSIFICATION_TYPE":"U","MEAN_MOTION":15.36828451,"ECCENTRICITY":0.0007897,"INCLINATION":51.8807,"RA_OF_ASC_NODE":299.4916,"ARG_OF_PERICENTER":5.0917,"MEAN_ANOMALY":355.0148,"EPHEMERIS_TYPE":0,"NORAD_CAT_ID":69593,"ELEMENT_SET_NO":999,"REV_AT_EPOCH":439,"BSTAR":0.00058678,"MEAN_MOTION_DOT":0.00021138,"MEAN_MOTION_DDOT":0},{"OBJECT_NAME":"KUIPER-00481","OBJECT_ID":"2026-140C","EPOCH":"2026-07-07T15:44:38.448384","CLASSIFICATION_TYPE":"U","MEAN_MOTION":15.37840552,"ECCENTRICITY":0.0011105,"INCLINATION":51.8783,"RA_OF_ASC_NODE":299.6565,"ARG_OF_PERICENTER":249.6761,"MEAN_ANOMALY":110.3033,"EPHEMERIS_TYPE":0,"NORAD_CAT_ID":69594,"ELEMENT_SET_NO":999,"REV_AT_EPOCH":438,"BSTAR":0.00033216,"MEAN_MOTION_DOT":0.00012193,"MEAN_MOTION_DDOT":0},{"OBJECT_NAME":"KUIPER-00490","OBJECT_ID":"2026-140D","EPOCH":"2026-07-07T15:58:23.954592","CLASSIFICATION_TYPE":"U","MEAN_MOTION":15.37831,"ECCENTRICITY":0.0006267,"INCLINATION":51.8769,"RA_OF_ASC_NODE":299.7147,"ARG_OF_PERICENTER":311.9924,"MEAN_ANOMALY":48.0529,"EPHEMERIS_TYPE":0,"NORAD_CAT_ID":69595,"ELEMENT_SET_NO":999,"REV_AT_EPOCH":438,"BSTAR":0.00048849,"MEAN_MOTION_DOT":0.00018106,"MEAN_MOTION_DDOT":0},{"OBJECT_NAME":"KUIPER-00493","OBJECT_ID":"2026-140E","EPOCH":"2026-07-07T14:48:39.829824","CLASSIFICATION_TYPE":"U","MEAN_MOTION":15.36544559,"ECCENTRICITY":0.0007562,"INCLINATION":51.8803,"RA_OF_ASC_NODE":300.143,"ARG_OF_PERICENTER":13.8269,"MEAN_ANOMALY":346.2923,"EPHEMERIS_TYPE":0,"NORAD_CAT_ID":69596,"ELEMENT_SET_NO":999,"REV_AT_EPOCH":437,"BSTAR":0.00025298,"MEAN_MOTION_DOT":0.00008791,"MEAN_MOTION_DDOT":0},{"OBJECT_NAME":"KUIPER-00496","OBJECT_ID":"2026-140F","EPOCH":"2026-07-07T15:07:25.143168","CLASSIFICATION_TYPE":"U","MEAN_MOTION":15.34386043,"ECCENTRICITY":0.0011575,"INCLINATION":51.8791,"RA_OF_ASC_NODE":300.2219,"ARG_OF_PERICENTER":12.35,"MEAN_ANOMALY":347.7767,"EPHEMERIS_TYPE":0,"NORAD_CAT_ID":69597,"ELEMENT_SET_NO":999,"REV_AT_EPOCH":437,"BSTAR":0.00043478,"MEAN_MOTION_DOT":0.00014372,"MEAN_MOTION_DDOT":0},{"OBJECT_NAME":"KUIPER-00513","OBJECT_ID":"2026-140G","EPOCH":"2026-07-07T15:55:04.838016","CLASSIFICATION_TYPE":"U","MEAN_MOTION":15.38036678,"ECCENTRICITY":0.0007052,"INCLINATION":51.8797,"RA_OF_ASC_NODE":299.7076,"ARG_OF_PERICENTER":309.4277,"MEAN_ANOMALY":50.6085,"EPHEMERIS_TYPE":0,"NORAD_CAT_ID":69598,"ELEMENT_SET_NO":999,"REV_AT_EPOCH":438,"BSTAR":0.00062141,"MEAN_MOTION_DOT":0.00023317,"MEAN_MOTION_DDOT":0},{"OBJECT_NAME":"KUIPER-00516","OBJECT_ID":"2026-140H","EPOCH":"2026-07-07T16:03:04.642272","CLASSIFICATION_TYPE":"U","MEAN_MOTION":15.37462649,"ECCENTRICITY":0.000664,"INCLINATION":51.8784,"RA_OF_ASC_NODE":299.7379,"ARG_OF_PERICENTER":327.3216,"MEAN_ANOMALY":32.7359,"EPHEMERIS_TYPE":0,"NORAD_CAT_ID":69599,"ELEMENT_SET_NO":999,"REV_AT_EPOCH":438,"BSTAR":0.00029631,"MEAN_MOTION_DOT":0.00010685,"MEAN_MOTION_DDOT":0}]}
